APRIZESAT 2             
1 28366U 04025A   26087.98912537  .00000317  00000+0  11103-3 0  9992
2 28366  98.0940 258.5397 0106620 131.7900 229.2459 14.38002243140119
SAUDICOMSAT 1           
1 28369U 04025D   26087.99364744  .00000460  00000+0  11664-3 0  9998
2 28369  98.5805  95.9532 0030938 269.1829  90.5823 14.55409042152467
SAUDICOMSAT 2           
1 28370U 04025E   26087.93834512  .00000381  00000+0  10918-3 0  9992
2 28370  98.6682  97.9058 0056331 141.6562 218.8657 14.49924768148477
APRIZESAT 1             
1 28372U 04025G   26088.00037023  .00000383  00000+0  10629-3 0  9996
2 28372  98.6341  96.5316 0045355  40.2326 320.2210 14.51730082150270
NANOSAT-1               
1 28493U 04049B   26088.12486007  .00001518  00000+0  20800-3 0  9992
2 28493  98.2138 222.8955 0004084 172.8700 187.2570 14.79978939143603
SAUDICOMSAT 7           
1 31119U 07012C   26087.85044141  .00000881  00000+0  16636-3 0  9996
2 31119  98.3709  60.3749 0057117  88.2478 272.5265 14.66001565 10666
SAUDICOMSAT 6           
1 31121U 07012E   26088.18014542  .00000690  00000+0  14171-3 0  9998
2 31121  98.4022  54.2519 0071075 215.1229 144.5275 14.62460074  8496
SAUDICOMSAT 5           
1 31124U 07012H   26088.20806237  .00001266  00000+0  22620-3 0  9992
2 31124  98.3423  61.5019 0047974  18.8324 341.4641 14.68045069 11863
SAUDICOMSAT 3           
1 31125U 07012J   26087.89802346  .00001169  00000+0  19915-3 0  9999
2 31125  98.3079  61.7442 0038144 307.2460  52.5268 14.70572962 13023
SAUDICOMSAT 4           
1 31127U 07012L   26088.14631836  .00000683  00000+0  13511-3 0  9990
2 31127  98.3913  59.1255 0064132 147.4891 213.0286 14.64405581  9577
APRIZESAT 4             
1 35684U 09041D   26088.14466800  .00000951  00000+0  12024-3 0  9999
2 35684  98.1453 161.8652 0042551 219.8236 139.9852 14.83746876899495
APRIZESAT 3             
1 35686U 09041F   26087.97507070  .00001712  00000+0  15313-3 0  9996
2 35686  98.1944 237.4213 0061333 333.1403  26.6645 14.95970629904385
S-NET D                 
1 43186U 18014G   26088.21511646  .00008562  00000+0  45045-3 0  9997
2 43186  97.5421 353.5274 0006852 302.8887  57.1686 15.15875636446642
S-NET B                 
1 43187U 18014H   26087.69692942  .00006451  00000+0  34072-3 0  9991
2 43187  97.5425 352.9968 0007453 298.9946  61.0539 15.15836786446564
S-NET A                 
1 43188U 18014J   26088.21436949  .00008533  00000+0  44883-3 0  9998
2 43188  97.5434 353.7048 0007335 297.8024  62.2464 15.15882699446640
S-NET C                 
1 43189U 18014K   26088.16244922  .00008036  00000+0  42335-3 0  9999
2 43189  97.5453 353.7156 0008613 288.2805  71.7490 15.15838568445181
SALSAT                  
1 46495U 20068K   26087.98694119  .00010179  00000+0  36891-3 0  9991
2 46495  97.8861  86.2455 0008782 214.9729 145.0934 15.28549734303109
