[{"OBJECT_NAME":"APRIZESAT 2","OBJECT_ID":"2004-025A","EPOCH":"2026-03-28T23:44:20.431968","MEAN_MOTION":14.38002243,"ECCENTRICITY":0.010662,"INCLINATION":98.094,"RA_OF_ASC_NODE":258.5397,"ARG_OF_PERICENTER":131.79,"MEAN_ANOMALY":229.2459,"EPHEMERIS_TYPE":0,"CLASSIFICATION_TYPE":"U","NORAD_CAT_ID":28366,"ELEMENT_SET_NO":999,"REV_AT_EPOCH":14011,"BSTAR":0.00011103,"MEAN_MOTION_DOT":3.17e-6,"MEAN_MOTION_DDOT":0},{"OBJECT_NAME":"SAUDICOMSAT 1","OBJECT_ID":"2004-025D","EPOCH":"2026-03-28T23:50:51.138816","MEAN_MOTION":14.55409042,"ECCENTRICITY":0.0030938,"INCLINATION":98.5805,"RA_OF_ASC_NODE":95.9532,"ARG_OF_PERICENTER":269.1829,"MEAN_ANOMALY":90.5823,"EPHEMERIS_TYPE":0,"CLASSIFICATION_TYPE":"U","NORAD_CAT_ID":28369,"ELEMENT_SET_NO":999,"REV_AT_EPOCH":15246,"BSTAR":0.00011664,"MEAN_MOTION_DOT":4.6e-6,"MEAN_MOTION_DDOT":0},{"OBJECT_NAME":"SAUDICOMSAT 2","OBJECT_ID":"2004-025E","EPOCH":"2026-03-28T22:31:13.018368","MEAN_MOTION":14.49924768,"ECCENTRICITY":0.0056331,"INCLINATION":98.6682,"RA_OF_ASC_NODE":97.9058,"ARG_OF_PERICENTER":141.6562,"MEAN_ANOMALY":218.8657,"EPHEMERIS_TYPE":0,"CLASSIFICATION_TYPE":"U","NORAD_CAT_ID":28370,"ELEMENT_SET_NO":999,"REV_AT_EPOCH":14847,"BSTAR":0.00010918,"MEAN_MOTION_DOT":3.81e-6,"MEAN_MOTION_DDOT":0},{"OBJECT_NAME":"APRIZESAT 1","OBJECT_ID":"2004-025G","EPOCH":"2026-03-29T00:00:31.987872","MEAN_MOTION":14.51730082,"ECCENTRICITY":0.0045355,"INCLINATION":98.6341,"RA_OF_ASC_NODE":96.5316,"ARG_OF_PERICENTER":40.2326,"MEAN_ANOMALY":320.221,"EPHEMERIS_TYPE":0,"CLASSIFICATION_TYPE":"U","NORAD_CAT_ID":28372,"ELEMENT_SET_NO":999,"REV_AT_EPOCH":15027,"BSTAR":0.00010629,"MEAN_MOTION_DOT":3.83e-6,"MEAN_MOTION_DDOT":0},{"OBJECT_NAME":"NANOSAT-1","OBJECT_ID":"2004-049B","EPOCH":"2026-03-29T02:59:47.910048","MEAN_MOTION":14.79978939,"ECCENTRICITY":0.0004084,"INCLINATION":98.2138,"RA_OF_ASC_NODE":222.8955,"ARG_OF_PERICENTER":172.87,"MEAN_ANOMALY":187.257,"EPHEMERIS_TYPE":0,"CLASSIFICATION_TYPE":"U","NORAD_CAT_ID":28493,"ELEMENT_SET_NO":999,"REV_AT_EPOCH":14360,"BSTAR":0.000208,"MEAN_MOTION_DOT":1.518e-5,"MEAN_MOTION_DDOT":0},{"OBJECT_NAME":"SAUDICOMSAT 7","OBJECT_ID":"2007-012C","EPOCH":"2026-03-28T20:24:38.137824","MEAN_MOTION":14.66001565,"ECCENTRICITY":0.0057117,"INCLINATION":98.3709,"RA_OF_ASC_NODE":60.3749,"ARG_OF_PERICENTER":88.2478,"MEAN_ANOMALY":272.5265,"EPHEMERIS_TYPE":0,"CLASSIFICATION_TYPE":"U","NORAD_CAT_ID":31119,"ELEMENT_SET_NO":999,"REV_AT_EPOCH":1066,"BSTAR":0.00016636001,"MEAN_MOTION_DOT":8.81e-6,"MEAN_MOTION_DDOT":0},{"OBJECT_NAME":"SAUDICOMSAT 6","OBJECT_ID":"2007-012E","EPOCH":"2026-03-29T04:19:24.564288","MEAN_MOTION":14.62460074,"ECCENTRICITY":0.0071075,"INCLINATION":98.4022,"RA_OF_ASC_NODE":54.2519,"ARG_OF_PERICENTER":215.1229,"MEAN_ANOMALY":144.5275,"EPHEMERIS_TYPE":0,"CLASSIFICATION_TYPE":"U","NORAD_CAT_ID":31121,"ELEMENT_SET_NO":999,"REV_AT_EPOCH":849,"BSTAR":0.00014171,"MEAN_MOTION_DOT":6.9e-6,"MEAN_MOTION_DDOT":0},{"OBJECT_NAME":"SAUDICOMSAT 5","OBJECT_ID":"2007-012H","EPOCH":"2026-03-29T04:59:36.588768","MEAN_MOTION":14.68045069,"ECCENTRICITY":0.0047974,"INCLINATION":98.3423,"RA_OF_ASC_NODE":61.5019,"ARG_OF_PERICENTER":18.8324,"MEAN_ANOMALY":341.4641,"EPHEMERIS_TYPE":0,"CLASSIFICATION_TYPE":"U","NORAD_CAT_ID":31124,"ELEMENT_SET_NO":999,"REV_AT_EPOCH":1186,"BSTAR":0.0002262,"MEAN_MOTION_DOT":1.266e-5,"MEAN_MOTION_DDOT":0},{"OBJECT_NAME":"SAUDICOMSAT 3","OBJECT_ID":"2007-012J","EPOCH":"2026-03-28T21:33:09.226944","MEAN_MOTION":14.70572962,"ECCENTRICITY":0.0038144,"INCLINATION":98.3079,"RA_OF_ASC_NODE":61.7442,"ARG_OF_PERICENTER":307.246,"MEAN_ANOMALY":52.5268,"EPHEMERIS_TYPE":0,"CLASSIFICATION_TYPE":"U","NORAD_CAT_ID":31125,"ELEMENT_SET_NO":999,"REV_AT_EPOCH":1302,"BSTAR":0.00019915,"MEAN_MOTION_DOT":1.169e-5,"MEAN_MOTION_DDOT":0},{"OBJECT_NAME":"SAUDICOMSAT 4","OBJECT_ID":"2007-012L","EPOCH":"2026-03-29T03:30:41.906304","MEAN_MOTION":14.64405581,"ECCENTRICITY":0.0064132,"INCLINATION":98.3913,"RA_OF_ASC_NODE":59.1255,"ARG_OF_PERICENTER":147.4891,"MEAN_ANOMALY":213.0286,"EPHEMERIS_TYPE":0,"CLASSIFICATION_TYPE":"U","NORAD_CAT_ID":31127,"ELEMENT_SET_NO":999,"REV_AT_EPOCH":957,"BSTAR":0.00013511,"MEAN_MOTION_DOT":6.83e-6,"MEAN_MOTION_DDOT":0},{"OBJECT_NAME":"APRIZESAT 4","OBJECT_ID":"2009-041D","EPOCH":"2026-03-29T03:28:19.315200","MEAN_MOTION":14.83746876,"ECCENTRICITY":0.0042551,"INCLINATION":98.1453,"RA_OF_ASC_NODE":161.8652,"ARG_OF_PERICENTER":219.8236,"MEAN_ANOMALY":139.9852,"EPHEMERIS_TYPE":0,"CLASSIFICATION_TYPE":"U","NORAD_CAT_ID":35684,"ELEMENT_SET_NO":999,"REV_AT_EPOCH":89949,"BSTAR":0.00012024,"MEAN_MOTION_DOT":9.51e-6,"MEAN_MOTION_DDOT":0},{"OBJECT_NAME":"APRIZESAT 3","OBJECT_ID":"2009-041F","EPOCH":"2026-03-28T23:24:06.108480","MEAN_MOTION":14.95970629,"ECCENTRICITY":0.0061333,"INCLINATION":98.1944,"RA_OF_ASC_NODE":237.4213,"ARG_OF_PERICENTER":333.1403,"MEAN_ANOMALY":26.6645,"EPHEMERIS_TYPE":0,"CLASSIFICATION_TYPE":"U","NORAD_CAT_ID":35686,"ELEMENT_SET_NO":999,"REV_AT_EPOCH":90438,"BSTAR":0.00015313,"MEAN_MOTION_DOT":1.712e-5,"MEAN_MOTION_DDOT":0},{"OBJECT_NAME":"S-NET D","OBJECT_ID":"2018-014G","EPOCH":"2026-03-29T05:09:46.062144","MEAN_MOTION":15.15875636,"ECCENTRICITY":0.0006852,"INCLINATION":97.5421,"RA_OF_ASC_NODE":353.5274,"ARG_OF_PERICENTER":302.8887,"MEAN_ANOMALY":57.1686,"EPHEMERIS_TYPE":0,"CLASSIFICATION_TYPE":"U","NORAD_CAT_ID":43186,"ELEMENT_SET_NO":999,"REV_AT_EPOCH":44664,"BSTAR":0.00045045,"MEAN_MOTION_DOT":8.562e-5,"MEAN_MOTION_DDOT":0},{"OBJECT_NAME":"S-NET B","OBJECT_ID":"2018-014H","EPOCH":"2026-03-28T16:43:34.701888","MEAN_MOTION":15.15836786,"ECCENTRICITY":0.0007453,"INCLINATION":97.5425,"RA_OF_ASC_NODE":352.9968,"ARG_OF_PERICENTER":298.9946,"MEAN_ANOMALY":61.0539,"EPHEMERIS_TYPE":0,"CLASSIFICATION_TYPE":"U","NORAD_CAT_ID":43187,"ELEMENT_SET_NO":999,"REV_AT_EPOCH":44656,"BSTAR":0.00034072,"MEAN_MOTION_DOT":6.451e-5,"MEAN_MOTION_DDOT":0},{"OBJECT_NAME":"S-NET A","OBJECT_ID":"2018-014J","EPOCH":"2026-03-29T05:08:41.523936","MEAN_MOTION":15.15882699,"ECCENTRICITY":0.0007335,"INCLINATION":97.5434,"RA_OF_ASC_NODE":353.7048,"ARG_OF_PERICENTER":297.8024,"MEAN_ANOMALY":62.2464,"EPHEMERIS_TYPE":0,"CLASSIFICATION_TYPE":"U","NORAD_CAT_ID":43188,"ELEMENT_SET_NO":999,"REV_AT_EPOCH":44664,"BSTAR":0.00044883,"MEAN_MOTION_DOT":8.533e-5,"MEAN_MOTION_DDOT":0},{"OBJECT_NAME":"S-NET C","OBJECT_ID":"2018-014K","EPOCH":"2026-03-29T03:53:55.612608","MEAN_MOTION":15.15838568,"ECCENTRICITY":0.0008613,"INCLINATION":97.5453,"RA_OF_ASC_NODE":353.7156,"ARG_OF_PERICENTER":288.2805,"MEAN_ANOMALY":71.749,"EPHEMERIS_TYPE":0,"CLASSIFICATION_TYPE":"U","NORAD_CAT_ID":43189,"ELEMENT_SET_NO":999,"REV_AT_EPOCH":44518,"BSTAR":0.00042335,"MEAN_MOTION_DOT":8.036e-5,"MEAN_MOTION_DDOT":0},{"OBJECT_NAME":"SALSAT","OBJECT_ID":"2020-068K","EPOCH":"2026-03-28T23:41:11.718816","MEAN_MOTION":15.28549734,"ECCENTRICITY":0.0008782,"INCLINATION":97.8861,"RA_OF_ASC_NODE":86.2455,"ARG_OF_PERICENTER":214.9729,"MEAN_ANOMALY":145.0934,"EPHEMERIS_TYPE":0,"CLASSIFICATION_TYPE":"U","NORAD_CAT_ID":46495,"ELEMENT_SET_NO":999,"REV_AT_EPOCH":30310,"BSTAR":0.00036891,"MEAN_MOTION_DOT":0.00010179,"MEAN_MOTION_DDOT":0}]
